[{"OBJECT_NAME":"FLOCK 4G-26","OBJECT_ID":"2025-009AA","EPOCH":"2026-03-09T19:19:02.910720","MEAN_MOTION":15.27281631,"ECCENTRICITY":0.0001988,"INCLINATION":97.4054,"RA_OF_ASC_NODE":151.3913,"ARG_OF_PERICENTER":299.1273,"MEAN_ANOMALY":60.9767,"EPHEMERIS_TYPE":0,"CLASSIFICATION_TYPE":"U","NORAD_CAT_ID":62633,"ELEMENT_SET_NO":999,"REV_AT_EPOCH":6373,"BSTAR":0.00042468806,"MEAN_MOTION_DOT":0.00011283,"MEAN_MOTION_DDOT":0},{"OBJECT_NAME":"STARLINK-33931","OBJECT_ID":"2025-101N","EPOCH":"2026-03-09T04:39:54.488160","MEAN_MOTION":15.27602185,"ECCENTRICITY":0.00012252,"INCLINATION":43.0027,"RA_OF_ASC_NODE":0.4019,"ARG_OF_PERICENTER":290.8123,"MEAN_ANOMALY":69.2597,"EPHEMERIS_TYPE":0,"CLASSIFICATION_TYPE":"U","NORAD_CAT_ID":64006,"ELEMENT_SET_NO":999,"REV_AT_EPOCH":4700,"BSTAR":0.00097277126,"MEAN_MOTION_DOT":0.00026621,"MEAN_MOTION_DDOT":0}]
